NORAD_CAT_ID,OBJECT_NAME,OBJECT_TYPE,EPOCH,MEAN_MOTION,ECCENTRICITY,INCLINATION,RA_OF_ASC_NODE,ARG_OF_PERICENTER,MEAN_ANOMALY,BSTAR,MEAN_MOTION_DOT,MEAN_MOTION_DDOT,TLE_LINE0,TLE_LINE1,TLE_LINE2,SEMIMAJOR_AXIS,PERIOD,APOGEE,PERIGEE,DECAYED
54011.0,STARLINK-5124,PAYLOAD,2022-10-20 22:00:00,15.73183384,0.0002215,53.218,17.5685,33.2403,181.2301,-0.0001215,-0.00017627,0.0,0 STARLINK-5124,1 54011U 22125AZ  22293.91667824 -.00017627  00000-0 -12150-3 0  9991,2 54011  53.2180  17.5685 0002215  33.2403 181.2301 15.73183384  1302,6727.943,91.534,351.298,348.31699999999995,0.0
54011.0,STARLINK-5124,PAYLOAD,2022-10-21 12:00:00,15.73257144,0.0002281,53.2183,14.6846,31.2381,248.8528,-0.00010692,-0.00015638,0.0,0 STARLINK-5124,1 54011U 22125AZ  22294.50001157 -.00015638  00000-0 -10692-3 0  9997,2 54011  53.2183  14.6846 0002281  31.2381 248.8528 15.73257144  2823,6727.732,91.53,351.13199999999995,348.06300000000016,0.0
54011.0,STARLINK-5124,PAYLOAD,2022-10-21 14:00:01,15.73261479,0.0002316999999999,53.2183,14.2714,30.4066,1.9308,-0.00018004,-0.00025881,0.0,0 STARLINK-5124,1 54011U 22125AZ  22294.58334491 -.00025881  00000-0 -18004-3 0  9991,2 54011  53.2183  14.2714 0002317  30.4066   1.9308 15.73261479  1306,6727.72,91.53,351.144,348.026,0.0
54011.0,STARLINK-5124,PAYLOAD,2022-10-21 20:00:01,15.73260156,0.00022,53.2186,13.0352,24.2512,344.8057,-0.0006513999999999,-0.00091301,0.0,0 STARLINK-5124,1 54011U 22125AZ  22294.83334491 -.00091301  00000-0 -65140-3 0  9992,2 54011  53.2186  13.0352 0002200  24.2512 344.8057 15.73260156  2876,6727.724,91.53,351.069,348.1090000000001,0.0
54011.0,STARLINK-5124,PAYLOAD,2022-10-21 22:00:00,15.73244843,0.0002131999999999,53.2189,12.6221,23.7546,97.5483,-0.00056972,-0.00079983,0.0,0 STARLINK-5124,1 54011U 22125AZ  22294.91667824 -.00079983  00000-0 -56972-3 0  9995,2 54011  53.2189  12.6221 0002132  23.7546  97.5483 15.73244843  1301,6727.767,91.531,351.06699999999995,348.1980000000001,0.0
54011.0,STARLINK-5124,PAYLOAD,2022-10-22 06:00:00,15.73225491,0.0002,53.219,10.9721,23.6713,186.567,-0.0001701,-0.00024452,0.0,0 STARLINK-5124,1 54011U 22125AZ  22295.25001157 -.00024452  00000-0 -17010-3 0  9995,2 54011  53.2190  10.9721 0002000  23.6713 186.5670 15.73225491  2944,6727.821999999999,91.532,351.033,348.342,0.0
54011.0,STARLINK-5124,PAYLOAD,2022-10-22 14:00:01,15.73161891,0.0002336999999999,53.2188,9.3247,19.4958,279.6955,0.00052203,0.00073169,0.0,0 STARLINK-5124,1 54011U 22125AZ  22295.58334491  .00073169  00000-0  52203-3 0  9991,2 54011  53.2188   9.3247 0002337  19.4958 279.6955 15.73161891  1305,6728.004,91.535,351.441,348.296,0.0
54011.0,STARLINK-5124,PAYLOAD,2022-10-22 20:00:01,15.732303,0.0002268,53.2182,8.0867,18.7693,257.1025,0.00023345,0.00032313,0.0,0 STARLINK-5124,1 54011U 22125AZ  22295.83334491  .00032313  00000-0  23345-3 0  9990,2 54011  53.2182   8.0867 0002268  18.7693 257.1025 15.73230300  3037,6727.809,91.531,351.2,348.148,0.0
54011.0,STARLINK-5124,PAYLOAD,2022-10-22 22:00:00,15.73241036,0.0002195,53.2184,7.6739,20.3026,7.8091,0.00018202,0.00025047,0.0,0 STARLINK-5124,1 54011U 22125AZ  22295.91667824  .00025047  00000-0  18202-3 0  9990,2 54011  53.2184   7.6739 0002195  20.3026   7.8091 15.73241036  1309,6727.778,91.531,351.12,348.166,0.0
54011.0,STARLINK-5124,PAYLOAD,2022-10-23 14:00:01,15.7326897,0.0002460999999999,53.2188,4.3765,22.9607,183.1606,-0.00030575,-0.00043444,0.0,0 STARLINK-5124,1 54011U 22125AZ  22296.58334491 -.00043444  00000-0 -30575-3 0  9995,2 54011  53.2188   4.3765 0002461  22.9607 183.1606 15.73268970  1301,6727.699000000001,91.529,351.219,347.908,0.0
54011.0,STARLINK-5124,PAYLOAD,2022-10-23 22:00:00,15.73240808,0.0002351,53.2189,2.7254,24.1969,270.9138,-0.00075204,-0.00105057,0.0,0 STARLINK-5124,1 54011U 22125AZ  22296.91667824 -.00105057  00000-0 -75204-3 0  9998,2 54011  53.2189   2.7254 0002351  24.1969 270.9138 15.73240808  3206,6727.779,91.531,351.226,348.06199999999984,0.0
54011.0,STARLINK-5124,PAYLOAD,2022-10-24 12:00:00,15.7306816,0.0002816999999999,53.2186,359.8403,32.6114,328.0975,0.00037608,0.00052197,0.0,0 STARLINK-5124,1 54011U 22125AZ  22297.50001157  .00052197  00000-0  37608-3 0  9995,2 54011  53.2186 359.8403 0002817  32.6114 328.0975 15.73068160  3290,6728.271,91.541,352.031,348.241,0.0
54011.0,STARLINK-5124,PAYLOAD,2022-10-24 14:00:01,15.73058258,0.0002833999999999,53.2185,359.4284,31.6011,81.3072,0.00068521,0.00096076,0.0,0 STARLINK-5124,1 54011U 22125AZ  22297.58334491  .00096076  00000-0  68521-3 0  9995,2 54011  53.2185 359.4284 0002834  31.6011  81.3072 15.73058258  1300,6728.299,91.541,352.071,348.2580000000001,0.0
54011.0,STARLINK-5124,PAYLOAD,2022-10-24 22:00:00,15.73118069,0.0002676,53.2182,357.7775,33.5438,168.1615,0.00028458,0.0003937,0.0,0 STARLINK-5124,1 54011U 22125AZ  22297.91667824  .00039370  00000-0  28458-3 0  9990,2 54011  53.2182 357.7775 0002676  33.5438 168.1615 15.73118069  1305,6728.129,91.538,351.7940000000001,348.1930000000001,0.0
54011.0,STARLINK-5124,PAYLOAD,2022-10-25 14:00:01,15.73162778,0.0002913,53.2182,354.4808,33.6955,345.7515,0.0006707,0.00094433,0.0,0 STARLINK-5124,1 54011U 22125AZ  22298.58334491  .00094433  00000-0  67070-3 0  9999,2 54011  53.2182 354.4808 0002913  33.6955 345.7515 15.73162778  1303,6728.001,91.535,351.826,347.906,0.0
54011.0,STARLINK-5124,PAYLOAD,2022-10-25 20:00:01,15.73227308,0.0002829,53.2183,353.2423,34.363,321.7659,9.9049e-05,0.00013319,0.0,0 STARLINK-5124,1 54011U 22125AZ  22298.83334491  .00013319  00000-0  99049-4 0  9993,2 54011  53.2183 353.2423 0002829  34.3630 321.7659 15.73227308  3506,6727.816999999999,91.532,351.586,347.779,0.0
54011.0,STARLINK-5124,PAYLOAD,2022-10-25 22:00:01,15.73216539,0.0002751,53.2184,352.8294,34.8406,73.598,0.00034899,0.00048682,0.0,0 STARLINK-5124,1 54011U 22125AZ  22298.91668981  .00048682  00000-0  34899-3 0  9998,2 54011  53.2184 352.8294 0002751  34.8406  73.5980 15.73216539  1307,6727.848000000001,91.532,351.564,347.862,0.0
54011.0,STARLINK-5124,PAYLOAD,2022-10-26 14:00:01,15.73193702,0.0002809,53.2177,349.5211,34.2358,252.1376,0.00011797,0.00015964,0.0,0 STARLINK-5124,1 54011U 22125AZ  22299.58334491  .00015964  00000-0  11797-3 0  9997,2 54011  53.2177 349.5211 0002809  34.2358 252.1376 15.73193702  1305,6727.913000000001,91.534,351.668,347.88800000000015,0.0
54011.0,STARLINK-5124,PAYLOAD,2022-10-26 20:00:01,15.73206442,0.0002658999999999,53.2174,348.2801,34.3181,228.752,-3.2949e-05,-5.246e-05,0.0,0 STARLINK-5124,1 54011U 22125AZ  22299.83334491 -.00005246  00000-0 -32949-4 0  9992,2 54011  53.2174 348.2801 0002659  34.3181 228.7520 15.73206442  3668,6727.877,91.533,351.531,347.95300000000015,0.0
54011.0,STARLINK-5124,PAYLOAD,2022-10-26 22:00:00,15.73203342,0.0002633,53.2175,347.8673,34.6792,340.6258,1.184e-05,1.04e-05,0.0,0 STARLINK-5124,1 54011U 22125AZ  22299.91667824  .00001040  00000-0  11840-4 0  9993,2 54011  53.2175 347.8673 0002633  34.6792 340.6258 15.73203342  1301,6727.886,91.533,351.522,347.97900000000016,0.0
54011.0,STARLINK-5124,PAYLOAD,2022-10-27 06:00:00,15.73259113,0.0002566999999999,53.2177,346.2313,28.1221,76.2,-0.00038393,-0.00054303,0.0,0 STARLINK-5124,1 54011U 22125AZ  22300.25001157 -.00054303  00000-0 -38393-3 0  9997,2 54011  53.2177 346.2313 0002567  28.1221  76.2000 15.73259113  3720,6727.727,91.53,351.319,347.865,0.0
54011.0,STARLINK-5124,PAYLOAD,2022-10-27 14:00:01,15.73213768,0.0002742,53.2177,344.5831,21.368,171.9991,3.0047e-05,3.599e-05,0.0,0 STARLINK-5124,1 54011U 22125AZ  22300.58335648  .00003599  00000-0  30047-4 0  9996,2 54011  53.2177 344.5831 0002742  21.3680 171.9991 15.73213768  1305,6727.856,91.532,351.566,347.876,0.0
54011.0,STARLINK-5124,PAYLOAD,2022-10-27 18:00:00,15.73210946,0.000265,53.2177,343.7573,20.5127,37.2646,5.5551e-05,7.185e-05,0.0,0 STARLINK-5124,1 54011U 22125AZ  22300.75001157  .00007185  00000-0  55551-4 0  9992,2 54011  53.2177 343.7573 0002650  20.5127  37.2646 15.73210946  3807,6727.864000000001,91.533,351.51199999999994,347.946,0.0
54011.0,STARLINK-5124,PAYLOAD,2022-10-27 22:00:00,15.73223808,0.0002493,53.2181,342.9316,19.5494,262.7009,-0.0001039,-0.00015194,0.0,0 STARLINK-5124,1 54011U 22125AZ  22300.91667824 -.00015194  00000-0 -10390-3 0  9991,2 54011  53.2181 342.9316 0002493  19.5494 262.7009 15.73223808  1300,6727.8269999999975,91.532,351.37,348.015,0.0
54011.0,STARLINK-5124,PAYLOAD,2022-10-28 14:00:01,15.73154033,0.0002766,53.2176,339.6342,14.7921,85.4156,0.00074027,0.00104376,0.0,0 STARLINK-5124,1 54011U 22125AZ  22301.58335648  .00104376  00000-0  74027-3 0  9997,2 54011  53.2176 339.6342 0002766  14.7921  85.4156 15.73154033  1307,6728.026,91.536,351.75199999999984,348.03,0.0
54011.0,STARLINK-5124,PAYLOAD,2022-10-28 22:00:01,15.73222549,0.0002546,53.2176,337.9826,17.2178,171.9138,-0.00037846,-0.0005346,0.0,0 STARLINK-5124,1 54011U 22125AZ  22301.91668981 -.00053460  00000-0 -37846-3 0  9990,2 54011  53.2176 337.9826 0002546  17.2178 171.9138 15.73222549  3999,6727.831,91.532,351.409,347.983,0.0
54011.0,STARLINK-5124,PAYLOAD,2022-10-29 04:00:00,15.73200461,0.0002533,53.2177,336.7458,20.0006,145.7789,-6.1732e-05,-9.278e-05,0.0,0 STARLINK-5124,1 54011U 22125AZ  22302.16667824 -.00009278  00000-0 -61732-4 0  9993,2 54011  53.2177 336.7458 0002533  20.0006 145.7789 15.73200461  4032,6727.894,91.533,351.463,348.055,0.0
54011.0,STARLINK-5124,PAYLOAD,2022-10-29 12:00:00,15.73200192,0.0002777,53.2178,335.0982,15.9743,238.7348,0.00047858,0.00067092,0.0,0 STARLINK-5124,1 54011U 22125AZ  22302.50001157  .00067092  00000-0  47858-3 0  9990,2 54011  53.2178 335.0982 0002777  15.9743 238.7348 15.73200192  1300,6727.895,91.533,351.62800000000016,347.891,0.0
54011.0,STARLINK-5124,PAYLOAD,2022-10-29 22:00:01,15.73209454,0.0002586,53.218,333.034,15.4585,80.5226,0.00039883,0.00055753,0.0,0 STARLINK-5124,1 54011U 22125AZ  22302.91668981  .00055753  00000-0  39883-3 0  9999,2 54011  53.2180 333.0340 0002586  15.4585  80.5226 15.73209454  1304,6727.868,91.533,351.473,347.99300000000005,0.0
